GLOBALSTAR M068         
1 32266U 07048D   24317.54289260 -.00000054  00000+0  27502-3 0  9999
2 32266  51.9885 242.6530 0001613  36.6887 134.1133 12.62807901790185
GLOBALSTAR M079         
1 37188U 10054A   24317.59831117 -.00000095  00000+0  48544-4 0  9992
2 37188  52.0041  79.1161 0000963 126.7591 246.4041 12.62267086649106
GLOBALSTAR M074         
1 37189U 10054B   24317.62420966 -.00000099  00000+0  25062-4 0  9997
2 37189  52.0018  78.3899 0000598 111.3384 261.5772 12.62258916649712
GLOBALSTAR M076         
1 37190U 10054C   24317.75149513 -.00000103  00000+0  54085-5 0  9993
2 37190  52.0033  78.1586 0000654 139.2540 329.4383 12.62273524649802
GLOBALSTAR M077         
1 37191U 10054D   24317.58685005 -.00000081  00000+0  12475-3 0  9996
2 37191  52.0096  35.4544 0000516 118.8773  21.6485 12.62266832649796
GLOBALSTAR M075         
1 37192U 10054E   24317.51143531 -.00000076  00000+0  15372-3 0  9996
2 37192  51.9926 121.2657 0000840  97.9830 300.9524 12.62268996648482
GLOBALSTAR M073         
1 37193U 10054F   24317.53153375 -.00000100  00000+0  20517-4 0  9992
2 37193  52.0083  34.8578 0000527 134.3005 355.8676 12.62272291650474
GLOBALSTAR M083         
1 37739U 11033A   24317.46936872 -.00000071  00000+0  18108-3 0  9998
2 37739  51.9876 344.0767 0000498 104.4032  43.2941 12.62267827619487
GLOBALSTAR M088         
1 37740U 11033B   24317.52732253 -.00000091  00000+0  69295-4 0  9990
2 37740  51.9733 249.5724 0000757  69.1730 102.7972 12.62264934615031
GLOBALSTAR M091         
1 37741U 11033C   24317.46134874 -.00000077  00000+0  15048-3 0  9999
2 37741  51.9987 212.9437 0001125  82.2048  88.2955 12.62270450615811
GLOBALSTAR M085         
1 37742U 11033D   24317.57470826 -.00000065  00000+0  21616-3 0  9997
2 37742  51.9841 163.8268 0001249  93.0698 294.0562 12.62269295616340
GLOBALSTAR M081         
1 37743U 11033E   24317.60589539 -.00000056  00000+0  26637-3 0  9992
2 37743  51.9931 166.3850 0001091 103.7505 305.0771 12.62263645616491
GLOBALSTAR M089         
1 37744U 11033F   24317.82611809 -.00000082  00000+0  12340-3 0  9998
2 37744  51.9905 119.9822 0000661 108.7414  40.3253 12.62272337617619
GLOBALSTAR M084         
1 38040U 11080A   24317.84420936 -.00000059  00000+0  25072-3 0  9991
2 38040  52.0026 347.1013 0000103  31.5980 140.1575 12.62270473595625
GLOBALSTAR M080         
1 38041U 11080B   24317.81794326 -.00000064  00000+0  22055-3 0  9990
2 38041  52.0079 348.7131 0000182 234.7917 297.0004 12.62268365595600
GLOBALSTAR M082         
1 38042U 11080C   24317.50954189 -.00000077  00000+0  14959-3 0  9990
2 38042  52.0083 305.0747 0000905  69.0991  80.8605 12.62269500596135
GLOBALSTAR M092         
1 38043U 11080D   24317.55257181 -.00000090  00000+0  79415-4 0  9998
2 38043  52.0107  35.3066 0000456 102.7041   3.0210 12.62269331594591
GLOBALSTAR M090         
1 38044U 11080E   24317.37696271 -.00000077  00000+0  15176-3 0  9994
2 38044  51.9889 299.5649 0000648  72.7258  74.9220 12.62270597596234
GLOBALSTAR M086         
1 38045U 11080F   24317.48345559 -.00000073  00000+0  17255-3 0  9993
2 38045  51.9904 299.7743 0000646 174.5141 337.8368 12.62270036596197
GLOBALSTAR M097         
1 39072U 13005A   24317.79347939 -.00000086  00000+0  98092-4 0  9994
2 39072  52.0039 213.1594 0000932  87.1059 272.9914 12.62267103543568
GLOBALSTAR M093         
1 39073U 13005B   24317.44998905 -.00000078  00000+0  14171-3 0  9998
2 39073  51.9802 207.8526 0001087  87.8049 272.2942 12.62267482543393
GLOBALSTAR M094         
1 39074U 13005C   24317.52924106 -.00000082  00000+0  11977-3 0  9996
2 39074  51.9935 121.7745 0001169 112.0389 248.0602 12.62265367545012
GLOBALSTAR M096         
1 39075U 13005D   24317.30486048 -.00000064  00000+0  22099-3 0  9998
2 39075  52.0050 170.8052 0001246  95.0719 265.0290 12.62264674543900
GLOBALSTAR M078         
1 39076U 13005E   24317.51555756  .00000014  00000+0  65531-3 0  9997
2 39076  51.9872 254.9645 0001613  63.7785 296.3248 12.62267620542550
GLOBALSTAR M095         
1 39077U 13005F   24317.77998365 -.00000093  00000+0  61675-4 0  9997
2 39077  51.9798 251.4668 0001248  77.3481 282.7524 12.62267829542808
GLOBALSTAR M087         
1 52888U 22064A   24316.68541633 -.00000059  00000+0  13247-3 0  9991
2 52888  51.9771  54.0520 0009361  23.1363 336.9957 13.37593600117262
